$$SOE
2460154.500000000, A.D. 2023-Jul-29 00:00:00.0000, -4.536258444900475E+08, -4.931852638364051E+07, -2.755237816908272E+07,
2460161.500000000, A.D. 2023-Aug-05 00:00:00.0000, -4.533594204328467E+08, -5.911960012931227E+07, -2.743304485943102E+07,
2460168.500000000, A.D. 2023-Aug-12 00:00:00.0000, -4.528640055166352E+08, -6.889082664824833E+07, -2.729984922955470E+07,
2460175.500000000, A.D. 2023-Aug-19 00:00:00.0000, -4.521411459376267E+08, -7.862746804279366E+07, -2.715293644422260E+07,
2460182.500000000, A.D. 2023-Aug-26 00:00:00.0000, -4.511924534948150E+08, -8.832485211876900E+07, -2.699245508839406E+07,
2460189.500000000, A.D. 2023-Sep-02 00:00:00.0000, -4.500196035852025E+08, -9.797837158938357E+07, -2.681855704858998E+07,
2460196.500000000, A.D. 2023-Sep-09 00:00:00.0000, -4.486243332933724E+08, -1.075834833681659E+08, -2.663139741250790E+07,
2460203.500000000, A.D. 2023-Sep-16 00:00:00.0000, -4.470084394041568E+08, -1.171357080132204E+08, -2.643113440677973E+07,
2460210.500000000, A.D. 2023-Sep-23 00:00:00.0000, -4.451737759191069E+08, -1.266306290399737E+08, -2.621792938731413E+07,
2460217.500000000, A.D. 2023-Sep-30 00:00:00.0000, -4.431222514131176E+08, -1.360638909153854E+08, -2.599194675339756E+07,
2460224.500000000, A.D. 2023-Oct-07 00:00:00.0000, -4.408558285817497E+08, -1.454311962804304E+08, -2.575335361370876E+07,
2460231.500000000, A.D. 2023-Oct-14 00:00:00.0000, -4.383765249376531E+08, -1.547283057182749E+08, -2.550231957026807E+07,
2460238.500000000, A.D. 2023-Oct-21 00:00:00.0000, -4.356864114263583E+08, -1.639510384683362E+08, -2.523901678521708E+07,
2460245.500000000, A.D. 2023-Oct-28 00:00:00.0000, -4.327876103826883E+08, -1.730952718278587E+08, -2.496362001441016E+07,
2460252.500000000, A.D. 2023-Nov-04 00:00:00.0000, -4.296822940738159E+08, -1.821569400139496E+08, -2.467630655548034E+07,
2460259.500000000, A.D. 2023-Nov-11 00:00:00.0000, -4.263726836485101E+08, -1.911320330893546E+08, -2.437725617533132E+07,
2460266.500000000, A.D. 2023-Nov-18 00:00:00.0000, -4.228610482712576E+08, -2.000165960193899E+08, -2.406665104218572E+07,
2460273.500000000, A.D. 2023-Nov-25 00:00:00.0000, -4.191497043666785E+08, -2.088067278399298E+08, -2.374467566670300E+07,
2460280.500000000, A.D. 2023-Dec-02 00:00:00.0000, -4.152410149440032E+08, -2.174985809498154E+08, -2.341151685532290E+07,
2460287.500000000, A.D. 2023-Dec-09 00:00:00.0000, -4.111373889216224E+08, -2.260883605887580E+08, -2.306736368750593E+07,
2460294.500000000, A.D. 2023-Dec-16 00:00:00.0000, -4.068412801621328E+08, -2.345723244903123E+08, -2.271240754203802E+07,
2460301.500000000, A.D. 2023-Dec-23 00:00:00.0000, -4.023551858674696E+08, -2.429467820243993E+08, -2.234684214807495E+07,
2460308.500000000, A.D. 2023-Dec-30 00:00:00.0000, -3.976816456721582E+08, -2.512080917817467E+08, -2.197086345220137E+07,
2460315.500000000, A.D. 2024-Jan-06 00:00:00.0000, -3.928232432050679E+08, -2.593526599628504E+08, -2.158466933194217E+07,
2460322.500000000, A.D. 2024-Jan-13 00:00:00.0000, -3.877826069460365E+08, -2.673769413803327E+08, -2.118845959460174E+07,
2460329.500000000, A.D. 2024-Jan-20 00:00:00.0000, -3.825624091527089E+08, -2.752774399905112E+08, -2.078243612151140E+07,
2460336.500000000, A.D. 2024-Jan-27 00:00:00.0000, -3.771653648829784E+08, -2.830507083013498E+08, -2.036680291797535E+07,
2460343.500000000, A.D. 2024-Feb-03 00:00:00.0000, -3.715942315368053E+08, -2.906933466059920E+08, -1.994176610696079E+07,
2460350.500000000, A.D. 2024-Feb-10 00:00:00.0000, -3.658518086363364E+08, -2.982020023356352E+08, -1.950753391594568E+07,
2460357.500000000, A.D. 2024-Feb-17 00:00:00.0000, -3.599409377039831E+08, -3.055733695274913E+08, -1.906431666940774E+07,
2460364.500000000, A.D. 2024-Feb-24 00:00:00.0000, -3.538645022024437E+08, -3.128041883962344E+08, -1.861232678941771E+07,
2460371.500000000, A.D. 2024-Mar-02 00:00:00.0000, -3.476254275075495E+08, -3.198912450435285E+08, -1.815177880985834E+07,
2460378.500000000, A.D. 2024-Mar-09 00:00:00.0000, -3.412266807748311E+08, -3.268313713696914E+08, -1.768288942211747E+07,
2460385.500000000, A.D. 2024-Mar-16 00:00:00.0000, -3.346712703035185E+08, -3.336214449910371E+08, -1.720587757224350E+07,
2460392.500000000, A.D. 2024-Mar-23 00:00:00.0000, -3.279622444999298E+08, -3.402583880544330E+08, -1.672096450921904E+07,
2460399.500000000, A.D. 2024-Mar-30 00:00:00.0000, -3.211026926790699E+08, -3.467391649764769E+08, -1.622837358077925E+07,
2460406.500000000, A.D. 2024-Apr-06 00:00:00.0000, -3.140957474461588E+08, -3.530607824765708E+08, -1.572833007542224E+07,
2460413.500000000, A.D. 2024-Apr-13 00:00:00.0000, -3.069445851060840E+08, -3.592202910699579E+08, -1.522106136797546E+07,
2460420.500000000, A.D. 2024-Apr-20 00:00:00.0000, -2.996524250524477E+08, -3.652147853455362E+08, -1.470679706246629E+07,
2460427.500000000, A.D. 2024-Apr-27 00:00:00.0000, -2.922225296519207E+08, -3.710414035902440E+08, -1.418576903873916E+07,
2460434.500000000, A.D. 2024-May-04 00:00:00.0000, -2.846582045340214E+08, -3.766973274637054E+08, -1.365821146810737E+07,
2460441.500000000, A.D. 2024-May-11 00:00:00.0000, -2.769627990458186E+08, -3.821797818256515E+08, -1.312436082802394E+07,
2460448.500000000, A.D. 2024-May-18 00:00:00.0000, -2.691397067876166E+08, -3.874860346956466E+08, -1.258445592132241E+07,
2460455.500000000, A.D. 2024-May-25 00:00:00.0000, -2.611923662031863E+08, -3.926133973535256E+08, -1.203873790260726E+07,
2460462.500000000, A.D. 2024-Jun-01 00:00:00.0000, -2.531242611629673E+08, -3.975592246393130E+08, -1.148745032162926E+07,
2460469.500000000, A.D. 2024-Jun-08 00:00:00.0000, -2.449389212921403E+08, -4.023209154771463E+08, -1.093083920774886E+07,
2460476.500000000, A.D. 2024-Jun-15 00:00:00.0000, -2.366399216424579E+08, -4.068959130799218E+08, -1.036915318721229E+07,
2460483.500000000, A.D. 2024-Jun-22 00:00:00.0000, -2.282308827115374E+08, -4.112817036611272E+08, -9.802643444626629E+06,
2460490.500000000, A.D. 2024-Jun-29 00:00:00.0000, -2.197154729293430E+08, -4.154758154761028E+08, -9.231563482520968E+06,
2460497.500000000, A.D. 2024-Jul-06 00:00:00.0000, -2.110974109650759E+08, -4.194758206663305E+08, -8.656169123358071E+06,
2460504.500000000, A.D. 2024-Jul-13 00:00:00.0000, -2.023804659044100E+08, -4.232793370857418E+08, -8.076718701778680E+06,
2460511.500000000, A.D. 2024-Jul-20 00:00:00.0000, -1.935684572819689E+08, -4.268840289624310E+08, -7.493473170783430E+06,
2460518.500000000, A.D. 2024-Jul-27 00:00:00.0000, -1.846652556235831E+08, -4.302876073565133E+08, -6.906696139862269E+06,
2460525.500000000, A.D. 2024-Aug-03 00:00:00.0000, -1.756747832232979E+08, -4.334878307902434E+08, -6.316653900640696E+06,
2460532.500000000, A.D. 2024-Aug-10 00:00:00.0000, -1.666010149868199E+08, -4.364825060563724E+08, -5.723615455657274E+06,
2460539.500000000, A.D. 2024-Aug-17 00:00:00.0000, -1.574479792914527E+08, -4.392694891851833E+08, -5.127852552955419E+06,
2460546.500000000, A.D. 2024-Aug-24 00:00:00.0000, -1.482197588323803E+08, -4.418466865951214E+08, -4.529639730982035E+06,
2460553.500000000, A.D. 2024-Aug-31 00:00:00.0000, -1.389204913376870E+08, -4.442120564912440E+08, -3.929254389481366E+06,
2460560.500000000, A.D. 2024-Sep-07 00:00:00.0000, -1.295543697848000E+08, -4.463636103876964E+08, -3.326976909586430E+06,
2460567.500000000, A.D. 2024-Sep-14 00:00:00.0000, -1.201256420314131E+08, -4.482994137604418E+08, -2.723090749472857E+06,
2460574.500000000, A.D. 2024-Sep-21 00:00:00.0000, -1.106386118877654E+08, -4.500175854185845E+08, -2.117882295658022E+06,
2460581.500000000, A.D. 2024-Sep-28 00:00:00.0000, -1.010976421146829E+08, -4.515162988219266E+08, -1.511640688946337E+06,
2460588.500000000, A.D. 2024-Oct-05 00:00:00.0000, -9.150715567362051E+07, -4.527937853440289E+08, -9.046579614667892E+05,
2460595.500000000, A.D. 2024-Oct-12 00:00:00.0000, -8.187163558497870E+07, -4.538483365026973E+08, -2.972292081179321E+05,
2460602.500000000, A.D. 2024-Oct-19 00:00:00.0000, -7.219562514092511E+07, -4.546783054313091E+08, 3.103473461343944E+05,
2460609.500000000, A.D. 2024-Oct-26 00:00:00.0000, -6.248372850052461E+07, -4.552821083958537E+08, 9.177703207066953E+05,
2460616.500000000, A.D. 2024-Nov-02 00:00:00.0000, -5.274061140590174E+07, -4.556582265098950E+08, 1.524735160082787E+06,
2460623.500000000, A.D. 2024-Nov-09 00:00:00.0000, -4.297100191915753E+07, -4.558052076300338E+08, 2.130934113871515E+06,
2460630.500000000, A.D. 2024-Nov-16 00:00:00.0000, -3.317969115009308E+07, -4.557216684343362E+08, 2.736056214248240E+06,
2460637.500000000, A.D. 2024-Nov-23 00:00:00.0000, -2.337153392329534E+07, -4.554062967361924E+08, 3.339787242839605E+06,
2460644.500000000, A.D. 2024-Nov-30 00:00:00.0000, -1.355144917148946E+07, -4.548578540787715E+08, 3.941809664982498E+06,
2460651.500000000, A.D. 2024-Dec-07 00:00:00.0000, -3.724419630652427E+06, -4.540751781917945E+08, 4.541802527829885E+06,
2460658.500000000, A.D. 2024-Dec-14 00:00:00.0000, 6.104508479801613E+06, -4.530571840885746E+08, 5.139441486066133E+06,
2460665.500000000, A.D. 2024-Dec-21 00:00:00.0000, 1.593022347909304E+07, -4.518028650450564E+08, 5.734399067008436E+06,
2460672.500000000, A.D. 2024-Dec-28 00:00:00.0000, 2.574754592895773E+07, -4.503112964290687E+08, 6.326344752112269E+06,
2460679.500000000, A.D. 2025-Jan-04 00:00:00.0000, 3.555122862417424E+07, -4.485816400061172E+08, 6.914944831429094E+06,
2460686.500000000, A.D. 2025-Jan-11 00:00:00.0000, 4.533595705575175E+07, -4.466131470647936E+08, 7.499862334469795E+06,
2460693.500000000, A.D. 2025-Jan-18 00:00:00.0000, 5.509634943723264E+07, -4.444051612826945E+08, 8.080757047300309E+06,
2460700.500000000, A.D. 2025-Jan-25 00:00:00.0000, 6.482695654542194E+07, -4.419571218089200E+08, 8.657285555558980E+06,
2460707.500000000, A.D. 2025-Feb-01 00:00:00.0000, 7.452226157325947E+07, -4.392685665943655E+08, 9.229101294346571E+06,
2460714.500000000, A.D. 2025-Feb-08 00:00:00.0000, 8.417668006199974E+07, -4.363391359506359E+08, 9.795854601963222E+06,
$$EOE